start=new Date('2021-11-16T00:00:00.000Z').valueOf();
sats=[{"GP_ID":"189838086","ECCENTRICITY":"0.00014830","DECAY_DATE":null,"ELEMENT_SET_NO":"999","EPOCH":"2021-11-15T20:55:16.851648","INCLINATION":"53.0551","OBJECT_TYPE":"PAYLOAD","BSTAR":"0.00007182700000","TLE_LINE2":"2 48363  53.0551 226.2389 0001483  72.9553 287.1598 15.06398330 29733","TLE_LINE1":"1 48363U 21038L   21319.87172282  .00000788  00000-0  71827-4 0  9993","CENTER_NAME":"EARTH","REV_AT_EPOCH":"2973","LAUNCH_DATE":"2021-05-04","TIME_SYSTEM":"UTC","OBJECT_ID":"2021-038L","SITE":"AFETR","MEAN_ELEMENT_THEORY":"SGP4","MEAN_ANOMALY":"287.1598","COUNTRY_CODE":"US","ARG_OF_PERICENTER":"72.9553","RA_OF_ASC_NODE":"226.2389","APOAPSIS":"548.246","RCS_SIZE":"LARGE","MEAN_MOTION_DDOT":"0.0000000000000","FILE":"3215928","MEAN_MOTION_DOT":"0.00000788","NORAD_CAT_ID":"48363","PERIOD":"95.592","CLASSIFICATION_TYPE":"U","SEMIMAJOR_AXIS":"6925.354","MEAN_MOTION":"15.06398330","REF_FRAME":"TEME","OBJECT_NAME":"STARLINK-2626","EPHEMERIS_TYPE":"0","PERIAPSIS":"546.192"},{"LAUNCH_DATE":"2021-05-04","TIME_SYSTEM":"UTC","OBJECT_ID":"2021-038M","TLE_LINE1":"1 48364U 21038M   21319.93344724  .00001573  00000-0  12449-3 0  9990","TLE_LINE2":"2 48364  53.0553 225.9636 0001817  65.2779 294.8399 15.06394048 29740","CENTER_NAME":"EARTH","REV_AT_EPOCH":"2974","DECAY_DATE":null,"ECCENTRICITY":"0.00018170","ELEMENT_SET_NO":"999","OBJECT_TYPE":"PAYLOAD","BSTAR":"0.00012449000000","EPOCH":"2021-11-15T22:24:09.841536","INCLINATION":"53.0553","GP_ID":"189838338","REF_FRAME":"TEME","OBJECT_NAME":"STARLINK-2611","EPHEMERIS_TYPE":"0","PERIAPSIS":"545.973","PERIOD":"95.593","NORAD_CAT_ID":"48364","CLASSIFICATION_TYPE":"U","MEAN_MOTION_DOT":"0.00001573","SEMIMAJOR_AXIS":"6925.367","MEAN_MOTION":"15.06394048","RCS_SIZE":"LARGE","FILE":"3215928","MEAN_MOTION_DDOT":"0.0000000000000","COUNTRY_CODE":"US","SITE":"AFETR","MEAN_ELEMENT_THEORY":"SGP4","MEAN_ANOMALY":"294.8399","RA_OF_ASC_NODE":"225.9636","ARG_OF_PERICENTER":"65.2779","APOAPSIS":"548.490"},{"CENTER_NAME":"EARTH","REV_AT_EPOCH":"2972","TLE_LINE2":"2 48365  53.0561 226.6606 0001629  77.0051 283.1120 15.06399762 29729","TLE_LINE1":"1 48365U 21038N   21319.77957030  .00001098  00000-0  92594-4 0  9995","OBJECT_ID":"2021-038N","TIME_SYSTEM":"UTC","LAUNCH_DATE":"2021-05-04","GP_ID":"189838589","INCLINATION":"53.0561","EPOCH":"2021-11-15T18:42:34.873920","BSTAR":"0.00009259400000","OBJECT_TYPE":"PAYLOAD","ECCENTRICITY":"0.00016290","DECAY_DATE":null,"ELEMENT_SET_NO":"999","MEAN_MOTION":"15.06399762","MEAN_MOTION_DOT":"0.00001098","PERIOD":"95.592","CLASSIFICATION_TYPE":"U","NORAD_CAT_ID":"48365","SEMIMAJOR_AXIS":"6925.349","EPHEMERIS_TYPE":"0","OBJECT_NAME":"STARLINK-2608","PERIAPSIS":"546.086","REF_FRAME":"TEME","APOAPSIS":"548.342","SITE":"AFETR","MEAN_ELEMENT_THEORY":"SGP4","MEAN_ANOMALY":"283.1120","COUNTRY_CODE":"US","ARG_OF_PERICENTER":"77.0051","RA_OF_ASC_NODE":"226.6606","MEAN_MOTION_DDOT":"0.0000000000000","FILE":"3215928","RCS_SIZE":"LARGE"},{"GP_ID":"189837337","ELEMENT_SET_NO":"999","DECAY_DATE":null,"ECCENTRICITY":"0.00016490","BSTAR":"0.00011948000000","OBJECT_TYPE":"PAYLOAD","EPOCH":"2021-11-15T21:35:45.649824","INCLINATION":"53.0549","TLE_LINE1":"1 48366U 21038P   21319.89983391  .00001498  00000-0  11948-3 0  9995","TLE_LINE2":"2 48366  53.0549 221.1147 0001649  74.1206 285.9965 15.06394298 29803","REV_AT_EPOCH":"2980","CENTER_NAME":"EARTH","LAUNCH_DATE":"2021-05-04","OBJECT_ID":"2021-038P","TIME_SYSTEM":"UTC","RA_OF_ASC_NODE":"221.1147","ARG_OF_PERICENTER":"74.1206","COUNTRY_CODE":"US","SITE":"AFETR","MEAN_ANOMALY":"285.9965","MEAN_ELEMENT_THEORY":"SGP4","APOAPSIS":"548.373","RCS_SIZE":"LARGE","FILE":"3215928","MEAN_MOTION_DDOT":"0.0000000000000","SEMIMAJOR_AXIS":"6925.366","PERIOD":"95.593","CLASSIFICATION_TYPE":"U","NORAD_CAT_ID":"48366","MEAN_MOTION_DOT":"0.00001498","MEAN_MOTION":"15.06394298","REF_FRAME":"TEME","PERIAPSIS":"546.089","OBJECT_NAME":"STARLINK-2631","EPHEMERIS_TYPE":"0"},{"BSTAR":"0.00002832900000","OBJECT_TYPE":"PAYLOAD","INCLINATION":"53.0566","EPOCH":"2021-11-15T18:19:22.096416","DECAY_DATE":null,"ECCENTRICITY":"0.00018090","ELEMENT_SET_NO":"999","GP_ID":"189837587","OBJECT_ID":"2021-038Q","TIME_SYSTEM":"UTC","LAUNCH_DATE":"2021-05-04","CENTER_NAME":"EARTH","REV_AT_EPOCH":"2978","TLE_LINE1":"1 48367U 21038Q   21319.76345019  .00000140  00000-0  28329-4 0  9996","TLE_LINE2":"2 48367  53.0566 221.7378 0001809  75.9445 284.1745 15.06395337 29786","FILE":"3215928","MEAN_MOTION_DDOT":"0.0000000000000","RCS_SIZE":"LARGE","APOAPSIS":"548.481","COUNTRY_CODE":"US","MEAN_ELEMENT_THEORY":"SGP4","SITE":"AFETR","MEAN_ANOMALY":"284.1745","RA_OF_ASC_NODE":"221.7378","ARG_OF_PERICENTER":"75.9445","OBJECT_NAME":"STARLINK-2643","EPHEMERIS_TYPE":"0","PERIAPSIS":"545.975","REF_FRAME":"TEME","MEAN_MOTION":"15.06395337","NORAD_CAT_ID":"48367","PERIOD":"95.592","CLASSIFICATION_TYPE":"U","MEAN_MOTION_DOT":"0.00000140","SEMIMAJOR_AXIS":"6925.363"},{"OBJECT_ID":"2021-038R","TIME_SYSTEM":"UTC","LAUNCH_DATE":"2021-05-04","REV_AT_EPOCH":"2980","CENTER_NAME":"EARTH","TLE_LINE2":"2 48368  53.0539 221.3479 0001699  80.3198 279.7983 15.06405286 29809","TLE_LINE1":"1 48368U 21038R   21319.84728010  .00003551  00000-0  25713-3 0  9994","EPOCH":"2021-11-15T20:20:05.000640","INCLINATION":"53.0539","OBJECT_TYPE":"PAYLOAD","BSTAR":"0.00025713000000","ELEMENT_SET_NO":"999","ECCENTRICITY":"0.00016990","DECAY_DATE":null,"GP_ID":"189838838","PERIAPSIS":"546.021","OBJECT_NAME":"STARLINK-2623","EPHEMERIS_TYPE":"0","REF_FRAME":"TEME","MEAN_MOTION":"15.06405286","SEMIMAJOR_AXIS":"6925.332","MEAN_MOTION_DOT":"0.00003551","CLASSIFICATION_TYPE":"U","PERIOD":"95.592","NORAD_CAT_ID":"48368","MEAN_MOTION_DDOT":"0.0000000000000","FILE":"3215928","RCS_SIZE":"LARGE","APOAPSIS":"548.374","ARG_OF_PERICENTER":"80.3198","RA_OF_ASC_NODE":"221.3479","MEAN_ELEMENT_THEORY":"SGP4","SITE":"AFETR","MEAN_ANOMALY":"279.7983","COUNTRY_CODE":"US"},{"LAUNCH_DATE":"2021-05-04","TIME_SYSTEM":"UTC","OBJECT_ID":"2021-038S","TLE_LINE1":"1 48369U 21038S   21319.75977083  .00001234  00000-0  10174-3 0  9992","TLE_LINE2":"2 48369  53.0537 221.7473 0001747  63.8004 296.3165 15.06385733 29780","CENTER_NAME":"EARTH","REV_AT_EPOCH":"2978","DECAY_DATE":null,"ECCENTRICITY":"0.00017470","ELEMENT_SET_NO":"999","OBJECT_TYPE":"PAYLOAD","BSTAR":"0.00010174000000","INCLINATION":"53.0537","EPOCH":"2021-11-15T18:14:04.199712","GP_ID":"189839089","REF_FRAME":"TEME","EPHEMERIS_TYPE":"0","OBJECT_NAME":"STARLINK-2641","PERIAPSIS":"546.047","PERIOD":"95.593","CLASSIFICATION_TYPE":"U","NORAD_CAT_ID":"48369","MEAN_MOTION_DOT":"0.00001234","SEMIMAJOR_AXIS":"6925.392","MEAN_MOTION":"15.06385733","RCS_SIZE":"LARGE","FILE":"3215928","MEAN_MOTION_DDOT":"0.0000000000000","COUNTRY_CODE":"US","SITE":"AFETR","MEAN_ANOMALY":"296.3165","MEAN_ELEMENT_THEORY":"SGP4","RA_OF_ASC_NODE":"221.7473","ARG_OF_PERICENTER":"63.8004","APOAPSIS":"548.467"},{"RCS_SIZE":"LARGE","MEAN_MOTION_DDOT":"0.0000000000000","FILE":"3215928","MEAN_ANOMALY":"292.3720","SITE":"AFETR","MEAN_ELEMENT_THEORY":"SGP4","COUNTRY_CODE":"US","ARG_OF_PERICENTER":"67.7448","RA_OF_ASC_NODE":"221.1654","APOAPSIS":"548.387","REF_FRAME":"TEME","EPHEMERIS_TYPE":"0","OBJECT_NAME":"STARLINK-2621","PERIAPSIS":"546.053","MEAN_MOTION_DOT":"0.00001091","NORAD_CAT_ID":"48370","PERIOD":"95.592","CLASSIFICATION_TYPE":"U","SEMIMAJOR_AXIS":"6925.355","MEAN_MOTION":"15.06397930","ECCENTRICITY":"0.00016850","DECAY_DATE":null,"ELEMENT_SET_NO":"999","INCLINATION":"53.0549","EPOCH":"2021-11-15T21:19:48.634176","BSTAR":"0.00009211200000","OBJECT_TYPE":"PAYLOAD","GP_ID":"189837837","LAUNCH_DATE":"2021-05-04","OBJECT_ID":"2021-038T","TIME_SYSTEM":"UTC","TLE_LINE2":"2 48370  53.0549 221.1654 0001685  67.7448 292.3720 15.06397930 29804","TLE_LINE1":"1 48370U 21038T   21319.88875734  .00001091  00000-0  92112-4 0  9992","CENTER_NAME":"EARTH","REV_AT_EPOCH":"2980"},{"TLE_LINE1":"1 48371U 21038U   21319.15526985  .00001890  00000-0  14574-3 0  9996","TLE_LINE2":"2 48371  53.0560 224.4647 0001664  67.5082 292.6083 15.06397379 29694","REV_AT_EPOCH":"2969","CENTER_NAME":"EARTH","LAUNCH_DATE":"2021-05-04","TIME_SYSTEM":"UTC","OBJECT_ID":"2021-038U","GP_ID":"189808795","ELEMENT_SET_NO":"999","DECAY_DATE":null,"ECCENTRICITY":"0.00016640","BSTAR":"0.00014574000000","OBJECT_TYPE":"PAYLOAD","INCLINATION":"53.0560","EPOCH":"2021-11-15T03:43:35.315040","SEMIMAJOR_AXIS":"6925.357","PERIOD":"95.592","NORAD_CAT_ID":"48371","CLASSIFICATION_TYPE":"U","MEAN_MOTION_DOT":"0.00001890","MEAN_MOTION":"15.06397379","REF_FRAME":"TEME","PERIAPSIS":"546.069","EPHEMERIS_TYPE":"0","OBJECT_NAME":"STARLINK-2589","RA_OF_ASC_NODE":"224.4647","ARG_OF_PERICENTER":"67.5082","COUNTRY_CODE":"US","SITE":"AFETR","MEAN_ELEMENT_THEORY":"SGP4","MEAN_ANOMALY":"292.6083","APOAPSIS":"548.374","RCS_SIZE":"LARGE","FILE":"3215681","MEAN_MOTION_DDOT":"0.0000000000000"},{"TLE_LINE2":"2 48372  53.0558 221.2020 0001727  76.8277 283.2905 15.06402789 29805","TLE_LINE1":"1 48372U 21038V   21319.88138927  .00000331  00000-0  41124-4 0  9993","REV_AT_EPOCH":"2980","CENTER_NAME":"EARTH","LAUNCH_DATE":"2021-05-04","TIME_SYSTEM":"UTC","OBJECT_ID":"2021-038V","GP_ID":"189838339","ELEMENT_SET_NO":"999","ECCENTRICITY":"0.00017270","DECAY_DATE":null,"EPOCH":"2021-11-15T21:09:12.032928","INCLINATION":"53.0558","OBJECT_TYPE":"PAYLOAD","BSTAR":"0.00004112400000","SEMIMAJOR_AXIS":"6925.340","MEAN_MOTION_DOT":"0.00000331","NORAD_CAT_ID":"48372","PERIOD":"95.592","CLASSIFICATION_TYPE":"U","MEAN_MOTION":"15.06402789","REF_FRAME":"TEME","PERIAPSIS":"546.009","OBJECT_NAME":"STARLINK-2572","EPHEMERIS_TYPE":"0","ARG_OF_PERICENTER":"76.8277","RA_OF_ASC_NODE":"221.2020","SITE":"AFETR","MEAN_ELEMENT_THEORY":"SGP4","MEAN_ANOMALY":"283.2905","COUNTRY_CODE":"US","APOAPSIS":"548.401","RCS_SIZE":"LARGE","MEAN_MOTION_DDOT":"0.0000000000000","FILE":"3215928"}];
